{
  "norad_id": 57063,
  "name": "STARLINK-5832",
  "history": [
    {
      "epoch": "2026-04-11T19:46:19.069248Z",
      "apogee_km": 486.6675463977208,
      "perigee_km": 484.41214218668574,
      "latitude_deg": -1.652003452393807e-05,
      "longitude_deg": 146.58534295384757,
      "height_km": 485.37068984612665,
      "semi_major_axis_km": 6863.676844292203,
      "eccentricity": 0.0001643,
      "inclination_deg": 43.0002,
      "raan_deg": 283.2026,
      "arg_perigee_deg": 267.263,
      "mean_anomaly_deg": 92.8033,
      "mean_motion_rev_day": 15.26748564
    },
    {
      "epoch": "2026-04-13T04:44:41.000064Z",
      "apogee_km": 486.6512022171155,
      "perigee_km": 484.4406844883806,
      "latitude_deg": 1.4060457066010593e-05,
      "longitude_deg": 2.890153421651852,
      "height_km": 485.34258020381736,
      "semi_major_axis_km": 6863.682943352748,
      "eccentricity": 0.00016103,
      "inclination_deg": 43.0002,
      "raan_deg": 275.4529,
      "arg_perigee_deg": 268.9806,
      "mean_anomaly_deg": 91.0861,
      "mean_motion_rev_day": 15.26746529
    },
    {
      "epoch": "2026-04-14T18:25:40.767744Z",
      "apogee_km": 486.5298075088667,
      "perigee_km": 484.59836202361294,
      "latitude_deg": -5.8624382934486556e-05,
      "longitude_deg": 147.23694868302056,
      "height_km": 485.2448846753158,
      "semi_major_axis_km": 6863.70108476624,
      "eccentricity": 0.0001407,
      "inclination_deg": 43.0012,
      "raan_deg": 266.5964,
      "arg_perigee_deg": 275.7133,
      "mean_anomaly_deg": 84.3557,
      "mean_motion_rev_day": 15.26740476
    },
    {
      "epoch": "2026-04-15T19:33:00.129312Z",
      "apogee_km": 486.4957969104744,
      "perigee_km": 484.6137726230927,
      "latitude_deg": 5.9505073656515654e-05,
      "longitude_deg": 123.47127771541783,
      "height_km": 485.22792497011045,
      "semi_major_axis_km": 6863.691784766784,
      "eccentricity": 0.0001371,
      "inclination_deg": 43.001,
      "raan_deg": 260.693,
      "arg_perigee_deg": 276.3289,
      "mean_anomaly_deg": 83.7407,
      "mean_motion_rev_day": 15.26743579
    },
    {
      "epoch": "2026-04-16T17:31:54.901920Z",
      "apogee_km": 486.5179498148773,
      "perigee_km": 484.59748803252296,
      "latitude_deg": -9.40266571504058e-06,
      "longitude_deg": 147.67372299828784,
      "height_km": 485.2190273250772,
      "semi_major_axis_km": 6863.6947189237,
      "eccentricity": 0.0001399,
      "inclination_deg": 43.0014,
      "raan_deg": 255.5265,
      "arg_perigee_deg": 276.9169,
      "mean_anomaly_deg": 83.1523,
      "mean_motion_rev_day": 15.267426
    }
  ]
}